COMMENT,ORIGINATOR,NORAD_CAT_ID,OBJECT_NAME,OBJECT_TYPE,CLASSIFICATION_TYPE,INTLDES,EPOCH,EPOCH_MICROSECONDS,MEAN_MOTION,ECCENTRICITY,INCLINATION,RA_OF_ASC_NODE,ARG_OF_PERICENTER,MEAN_ANOMALY,EPHEMERIS_TYPE,ELEMENT_SET_NO,REV_AT_EPOCH,BSTAR,MEAN_MOTION_DOT,MEAN_MOTION_DDOT,FILE,TLE_LINE0,TLE_LINE1,TLE_LINE2,OBJECT_ID,OBJECT_NUMBER,SEMIMAJOR_AXIS,PERIOD,APOGEE,PERIGEE,DECAYED,date
GENERATED VIA SPACETRACK.ORG API,18 SPCS,48886,SPACEBEE-102,PAYLOAD,U,21059H,2023/4/1 8:56,674912,15.26109077,0.0007551,97.5827,226.5589,184.6282,175.4887,0,999,9764,0.0016974,0.00043962,0,3877270,0 SPACEBEE-102,1 48886U 21059H   23091.37258883  .00043962  00000-0  16974-2 0  9993,2 48886  97.5827 226.5589 0007551 184.6282 175.4887 15.26109077 97644,2021-059H,48886,6865.594,94.358,492.643,482.275,0,
GENERATED VIA SPACETRACK.ORG API,18 SPCS,48886,SPACEBEE-102,PAYLOAD,U,21059H,2023/4/1 19:57,867808,15.2614491,0.0007556,97.5829,227.0246,183.2962,176.8228,0,999,9771,0.0016064,0.00041633,0,3877516,0 SPACEBEE-102,1 48886U 21059H   23091.83156097  .00041633  00000-0  16064-2 0  9991,2 48886  97.5829 227.0246 0007556 183.2962 176.8228 15.26144910 97714,2021-059H,48886,6865.487,94.355,492.539,482.164,0,
GENERATED VIA SPACETRACK.ORG API,18 SPCS,48886,SPACEBEE-102,PAYLOAD,U,21059H,2023/4/2 6:58,47232,15.2618459,0.0007553,97.5829,227.4903,181.9,178.2211,0,999,9778,0.0017388,0.00045146,0,3877726,0 SPACEBEE-102,1 48886U 21059H   23092.29052138  .00045146  00000-0  17388-2 0  9996,2 48886  97.5829 227.4903 0007553 181.9000 178.2211 15.26184590 97786,2021-059H,48886,6865.368,94.353,492.418,482.047,0,
GENERATED VIA SPACETRACK.ORG API,18 SPCS,48886,SPACEBEE-102,PAYLOAD,U,21059H,2023/4/2 8:32,849408,15.26189997,0.0007567,97.5828,227.5569,181.697,178.4244,0,999,9779,0.0017236,0.00044756,0,3878126,0 SPACEBEE-102,1 48886U 21059H   23092.35608622  .00044756  00000-0  17236-2 0  9996,2 48886  97.5828 227.5569 0007567 181.6970 178.4244 15.26189997 97797,2021-059H,48886,6865.351,94.353,492.411,482.021,0,
GENERATED VIA SPACETRACK.ORG API,18 SPCS,48886,SPACEBEE-102,PAYLOAD,U,21059H,2023/4/2 21:08,570432,15.26225882,0.0007553,97.583,228.0892,180.2647,179.8588,0,999,9787,0.0013152,0.00034122,0,3878419,0 SPACEBEE-102,1 48886U 21059H   23092.88059688  .00034122  00000-0  13152-2 0  9995,2 48886  97.5830 228.0892 0007553 180.2647 179.8588 15.26225882 97875,2021-059H,48886,6865.244,94.35,492.294,481.923,0,
GENERATED VIA SPACETRACK.ORG API,18 SPCS,48886,SPACEBEE-102,PAYLOAD,U,21059H,2023/4/2 22:42,204992,15.26230194,0.0007558,97.5829,228.1557,180.2315,179.892,0,999,9788,0.0012993,0.00033711,0,3878570,0 SPACEBEE-102,1 48886U 21059H   23092.94615978  .00033711  00000-0  12993-2 0  9997,2 48886  97.5829 228.1557 0007558 180.2315 179.8920 15.26230194 97882,2021-059H,48886,6865.231,94.35,492.285,481.907,0,
GENERATED VIA SPACETRACK.ORG API,18 SPCS,48886,SPACEBEE-102,PAYLOAD,U,21059H,2023/4/3 8:08,619232,15.26265168,0.0007507,97.5831,228.5549,179.1253,181,0,999,9794,0.0015695,0.00040818,0,3879059,0 SPACEBEE-102,1 48886U 21059H   23093.33953263  .00040818  00000-0  15695-2 0  9991,2 48886  97.5831 228.5549 0007507 179.1253 181.0000 15.26265168 97942,2021-059H,48886,6865.126,94.348,492.145,481.837,0,
GENERATED VIA SPACETRACK.ORG API,18 SPCS,48886,SPACEBEE-102,PAYLOAD,U,21059H,2023/4/3 8:08,619232,15.26265168,0.0007507,97.5831,228.5549,179.1253,181,0,999,9794,0.0015695,0.00040818,0,3879187,0 SPACEBEE-102,1 48886U 21059H   23093.33953263  .00040818  00000-0  15695-2 0  9991,2 48886  97.5831 228.5549 0007507 179.1253 181.0000 15.26265168 97942,2021-059H,48886,6865.126,94.348,492.145,481.837,0,
GENERATED VIA SPACETRACK.ORG API,18 SPCS,48886,SPACEBEE-102,PAYLOAD,U,21059H,2023/4/4 7:45,101024,15.26343895,0.0007489,97.5833,229.553,176.3758,183.7536,0,999,9809,0.0015909,0.00041477,0,3879974,0 SPACEBEE-102,1 48886U 21059H   23094.32292941  .00041477  00000-0  15909-2 0  9990,2 48886  97.5833 229.5530 0007489 176.3758 183.7536 15.26343895 98097,2021-059H,48886,6864.89,94.343,491.896,481.614,0,
GENERATED VIA SPACETRACK.ORG API,18 SPCS,48886,SPACEBEE-102,PAYLOAD,U,21059H,2023/4/5 8:55,149152,15.26424725,0.0007463,97.5839,230.6175,172.3968,187.7384,0,999,9825,0.0014782,0.00038613,0,3880822,0 SPACEBEE-102,1 48886U 21059H   23095.37183043  .00038613  00000-0  14782-2 0  9994,2 48886  97.5839 230.6175 0007463 172.3968 187.7384 15.26424725 98257,2021-059H,48886,6864.648,94.338,491.636,481.39,0,
GENERATED VIA SPACETRACK.ORG API,18 SPCS,48886,SPACEBEE-102,PAYLOAD,U,21059H,2023/4/5 8:55,149152,15.26424725,0.0007463,97.5839,230.6175,172.3968,187.7384,0,999,9825,0.0014782,0.00038613,0,3880853,0 SPACEBEE-102,1 48886U 21059H   23095.37183043  .00038613  00000-0  14782-2 0  9994,2 48886  97.5839 230.6175 0007463 172.3968 187.7384 15.26424725 98257,2021-059H,48886,6864.648,94.338,491.636,481.39,0,
GENERATED VIA SPACETRACK.ORG API,18 SPCS,48886,SPACEBEE-102,PAYLOAD,U,21059H,2023/4/5 19:56,129728,15.26458105,0.0007473,97.5841,231.0833,170.7266,189.4112,0,999,9832,0.0013861,0.00036227,0,3881153,0 SPACEBEE-102,1 48886U 21059H   23095.83070752  .00036227  00000-0  13861-2 0  9993,2 48886  97.5841 231.0833 0007473 170.7266 189.4112 15.26458105 98325,2021-059H,48886,6864.548,94.336,491.542,481.283,0,
GENERATED VIA SPACETRACK.ORG API,18 SPCS,48886,SPACEBEE-102,PAYLOAD,U,21059H,2023/4/6 8:31,876896,15.26496145,0.0007427,97.5841,231.6158,169.0576,191.0825,0,999,9840,0.0013772,0.00036034,0,3881771,0 SPACEBEE-102,1 48886U 21059H   23096.35512589  .00036034  00000-0  13772-2 0  9997,2 48886  97.5841 231.6158 0007427 169.0576 191.0825 15.26496145 98400,2021-059H,48886,6864.433,94.334,491.397,481.2,0,
GENERATED VIA SPACETRACK.ORG API,18 SPCS,48886,SPACEBEE-102,PAYLOAD,U,21059H,2023/4/6 19:32,968768,15.26528943,0.0007413,97.5843,232.0816,167.3855,192.757,0,999,9847,0.0012921,0.00033826,0,3881933,0 SPACEBEE-102,1 48886U 21059H   23096.81398112  .00033826  00000-0  12921-2 0  9993,2 48886  97.5843 232.0816 0007413 167.3855 192.7570 15.26528943 98478,2021-059H,48886,6864.335,94.332,491.289,481.112,0,
GENERATED VIA SPACETRACK.ORG API,18 SPCS,48886,SPACEBEE-102,PAYLOAD,U,21059H,2023/4/6 19:32,968768,15.26528943,0.0007413,97.5843,232.0816,167.3855,192.757,0,999,9847,0.0012921,0.00033826,0,3882049,0 SPACEBEE-102,1 48886U 21059H   23096.81398112  .00033826  00000-0  12921-2 0  9993,2 48886  97.5843 232.0816 0007413 167.3855 192.7570 15.26528943 98478,2021-059H,48886,6864.335,94.332,491.289,481.112,0,
GENERATED VIA SPACETRACK.ORG API,18 SPCS,48886,SPACEBEE-102,PAYLOAD,U,21059H,2023/4/7 14:24,964608,15.26588157,0.000737,97.5845,232.88,165.43,194.7152,0,999,9859,0.0014626,0.00038391,0,3882626,0 SPACEBEE-102,1 48886U 21059H   23097.60056672  .00038391  00000-0  14626-2 0  9999,2 48886  97.5845 232.8800 0007370 165.4300 194.7152 15.26588157 98591,2021-059H,48886,6864.158,94.328,491.082,480.964,0,
GENERATED VIA SPACETRACK.ORG API,18 SPCS,48886,SPACEBEE-102,PAYLOAD,U,21059H,2023/4/7 20:42,38912,15.26606373,0.0007353,97.5847,233.1462,164.6082,195.5381,0,999,9863,0.0013224,0.00034706,0,3882776,0 SPACEBEE-102,1 48886U 21059H   23097.86275508  .00034706  00000-0  13224-2 0  9997,2 48886  97.5847 233.1462 0007353 164.6082 195.5381 15.26606373 98639,2021-059H,48886,6864.103,94.327,491.015,480.921,0,
GENERATED VIA SPACETRACK.ORG API,18 SPCS,48886,SPACEBEE-102,PAYLOAD,U,21059H,2023/4/8 7:43,300320,15.26638293,0.0007418,97.5849,233.6125,162.9567,197.1922,0,999,9870,0.0013072,0.00034338,0,3883527,0 SPACEBEE-102,1 48886U 21059H   23098.32157755  .00034338  00000-0  13072-2 0  9994,2 48886  97.5849 233.6125 0007418 162.9567 197.1922 15.26638293 98706,2021-059H,48886,6864.007,94.325,490.964,480.781,0,
GENERATED VIA SPACETRACK.ORG API,18 SPCS,48886,SPACEBEE-102,PAYLOAD,U,21059H,2023/4/9 2:35,529472,15.26691822,0.0007451,97.5853,234.4112,159.8223,200.3312,0,999,9882,0.0012688,0.00033377,0,3883973,0 SPACEBEE-102,1 48886U 21059H   23099.10810798  .00033377  00000-0  12688-2 0  9998,2 48886  97.5853 234.4112 0007451 159.8223 200.3312 15.26691822 98827,2021-059H,48886,6863.847,94.322,490.826,480.598,0,
GENERATED VIA SPACETRACK.ORG API,18 SPCS,48886,SPACEBEE-102,PAYLOAD,U,21059H,2023/4/9 8:53,45984,15.26712701,0.0007444,97.5854,234.6775,158.9118,201.2429,0,999,9886,0.0013334,0.0003511,0,3884332,0 SPACEBEE-102,1 48886U 21059H   23099.37027831  .00035110  00000-0  13334-2 0  9991,2 48886  97.5854 234.6775 0007444 158.9118 201.2429 15.26712701 98863,2021-059H,48886,6863.784,94.32,490.759,480.54,0,
GENERATED VIA SPACETRACK.ORG API,18 SPCS,48886,SPACEBEE-102,PAYLOAD,U,21059H,2023/4/10 6:54,340224,15.26774691,0.0007418,97.5854,235.6096,156.1048,204.0536,0,999,9900,0.0013514,0.00035654,0,3884859,0 SPACEBEE-102,1 48886U 21059H   23100.28785116  .00035654  00000-0  13514-2 0  9994,2 48886  97.5854 235.6096 0007418 156.1048 204.0536 15.26774691 99006,2021-059H,48886,6863.599,94.316,490.555,480.372,0,
GENERATED VIA SPACETRACK.ORG API,18 SPCS,48886,SPACEBEE-102,PAYLOAD,U,21059H,2023/4/10 8:28,946112,15.2678159,0.0007419,97.5854,235.6762,155.761,204.3979,0,999,9901,0.0014509,0.00038306,0,3885195,0 SPACEBEE-102,1 48886U 21059H   23100.35339058  .00038306  00000-0  14509-2 0  9994,2 48886  97.5854 235.6762 0007419 155.7610 204.3979 15.26781590 99018,2021-059H,48886,6863.578,94.316,490.535,480.351,0,
GENERATED VIA SPACETRACK.ORG API,18 SPCS,48886,SPACEBEE-102,PAYLOAD,U,21059H,2023/4/10 16:20,685248,15.26806413,0.0007408,97.5856,236.0093,154.9792,205.1806,0,999,9906,0.0015114,0.00039945,0,3885363,0 SPACEBEE-102,1 48886U 21059H   23100.68108432  .00039945  00000-0  15114-2 0  9993,2 48886  97.5856 236.0093 0007408 154.9792 205.1806 15.26806413 99067,2021-059H,48886,6863.503,94.315,490.453,480.284,0,
